STARLINK-5147           
1 53985U 22125X   22289.91667824 -.00049292  00000+0 -34798-3 0  9999
2 53985  53.2196  37.3924 0001747  25.6610 187.2076 15.73256199  1308
STARLINK-5119           
1 53986U 22125Y   22290.16667824 -.00607967  00000+0 -35054-2 0  9993
2 53986  53.2184  35.9802 0001827  27.3381 246.8547 15.79551937  2151
STARLINK-5112           
1 53987U 22125Z   22290.16667824  .00000542  00000+0  82872-5 0  9991
2 53987  53.2179  36.1516 0001550  24.4977 165.9128 15.73182133  2151
STARLINK-5113           
1 53988U 22125AA  22290.16667824  .00105359  00000+0  74758-3 0  9996
2 53988  53.2181  36.1476 0001826  25.1866 167.4776 15.73141377  2152
STARLINK-5115           
1 53989U 22125AB  22289.91667824 -.00034485  00000+0 -24268-3 0  9992
2 53989  53.2196  37.3891 0002550  18.1270 196.6687 15.73157947  1300
STARLINK-5075           
1 53990U 22125AC  22289.91667824 -.00027079  00000+0 -18919-3 0  9991
2 53990  53.2184  37.3836 0002008  29.6152 188.1024 15.73190857  1300
STARLINK-5118           
1 53991U 22125AD  22289.91667824 -.00547511  00000+0 -26974-2 0  9999
2 53991  53.2173  36.9817 0001342  42.0738  15.0478 15.82783605  1302
STARLINK-5108           
1 53992U 22125AE  22289.91667824 -.00005075  00000+0 -31832-4 0  9995
2 53992  53.2197  37.3810 0001986  35.1865 183.6996 15.73143635  1305
STARLINK-5121           
1 53993U 22125AF  22290.16667824  .00174941  00000+0  12370-2 0  9996
2 53993  53.2190  36.1449 0001923  45.3844 148.2338 15.72973099  2150
STARLINK-5125           
1 53994U 22125AG  22289.91667824 -.00048691  00000+0 -34447-3 0  9992
2 53994  53.2180  37.3758 0002104  31.0541 190.2683 15.73199916  1309
STARLINK-5097           
1 53995U 22125AH  22290.16667824  .00089425  00000+0  63275-3 0  9991
2 53995  53.2179  36.1397 0002283  36.2506 160.3767 15.73274775  2152
STARLINK-5131           
1 53996U 22125AJ  22290.16667824 -.00047634  00000+0 -33614-3 0  9994
2 53996  53.2183  36.1355 0001805  34.7395 163.8573 15.73250514  2158
STARLINK-5130           
1 53997U 22125AK  22290.16667824  .00031937  00000+0  23126-3 0  9999
2 53997  53.2194  36.1388 0001537  32.5680 164.2366 15.73183845  2159
STARLINK-5128           
1 53998U 22125AL  22290.16667824  .00007511  00000+0  57902-4 0  9991
2 53998  53.2178  36.1337 0001951  34.2233 165.5047 15.73193387  2151
STARLINK-5079           
1 53999U 22125AM  22290.16667824  .00032017  00000+0  23162-3 0  9991
2 53999  53.2182  36.1374 0001880  41.2005 156.1933 15.73204306  2158
STARLINK-5088           
1 54000U 22125AN  22289.91667824 -.00243294  00000+0 -17644-2 0  9996
2 54000  53.2186  37.3709 0001771  37.8197 185.9968 15.73398002  1304
STARLINK-5105           
1 54001U 22125AP  22290.16667824  .00027858  00000+0  20212-3 0  9996
2 54001  53.2195  36.1305 0001628  33.9021 167.0779 15.73214657  2145
STARLINK-5109           
1 54002U 22125AQ  22289.91667824  .00029137  00000+0  21151-3 0  9993
2 54002  53.2184  37.3385 0001202  16.2616 227.6779 15.73176684  1304
STARLINK-5114           
1 54003U 22125AR  22290.16667824 -.00023039  00000+0 -16015-3 0  9993
2 54003  53.2192  36.1341 0001719  23.3714 175.8281 15.73203229  2145
STARLINK-5129           
1 54004U 22125AS  22290.16667824  .00092198  00000+0  65559-3 0  9991
2 54004  53.2186  36.1272 0001952  24.7890 177.9489 15.73147590  2142
STARLINK-5135           
1 54005U 22125AT  22289.91667824  .00020719  00000+0  15198-3 0  9997
2 54005  53.2178  37.3686 0001979  29.7451 195.1854 15.73152783  1308
STARLINK-5096           
1 54006U 22125AU  22290.16667824  .00004528  00000+0  36683-4 0  9990
2 54006  53.2187  36.1226 0001551  34.2480 171.5755 15.73186711  2144
STARLINK-5132           
1 54007U 22125AV  22290.16667824  .00003194  00000+0  27154-4 0  9992
2 54007  53.2183  36.1267 0001501  37.8465 165.5441 15.73210620  2145
STARLINK-5145           
1 54008U 22125AW  22289.91667824 -.00547853  00000+0 -31870-2 0  9999
2 54008  53.2172  37.2045 0001845  26.9977 277.4466 15.79203637  1301
STARLINK-5099           
1 54009U 22125AX  22290.16667824  .00123074  00000+0  87015-3 0  9995
2 54009  53.2192  36.1234 0001835  32.5283 171.9559 15.73156157  2146
STARLINK-5127           
1 54010U 22125AY  22290.16667824  .00031656  00000+0  18343-3 0  9999
2 54010  53.2250  36.0024 0002272  19.8211 245.1032 15.78305424  2142
STARLINK-5124           
1 54011U 22125AZ  22290.16667824  .00127808  00000+0  90414-3 0  9994
2 54011  53.2197  36.1251 0001338  28.0890 175.9605 15.73125470  2145
STARLINK-5126           
1 54012U 22125BA  22289.91667824  .00038027  00000+0  27428-3 0  9995
2 54012  53.2192  37.3561 0001892  28.8139 202.6013 15.73186731  1302
STARLINK-5098           
1 54013U 22125BB  22290.16667824  .00051039  00000+0  36739-3 0  9998
2 54013  53.2198  36.1194 0001939  21.4036 185.5786 15.73101592  2146
STARLINK-5116           
1 54014U 22125BC  22290.16667824 -.00003008  00000+0 -17064-4 0  9995
2 54014  53.2191  36.1187 0001846  25.0301 182.7313 15.73140355  2149
STARLINK-5055           
1 54015U 22125BD  22290.16667824  .00188951  00000+0  13289-2 0  9998
2 54015  53.2183  36.1145 0001677  24.3496 185.0914 15.73053862  2143
CENTISPACE-1 S5         
1 54020U 22126A   22290.12459429  .00005365  00000+0  11988-2 0  9992
2 54020  55.0001 148.8693 0012796 315.1344  44.8334 14.57938071  1405
CENTISPACE-1 S6         
1 54021U 22126B   22290.12303500  .00003219  00000+0  73166-3 0  9994
2 54021  54.9988 148.8572 0014292 313.6440  46.3397 14.58154689  1397
GAZELLE                 
1 54023U 22127A   22289.97506891 -.00000043  00000+0  00000+0 0  9992
2 54023  98.3141 289.1040 0012561 271.5847  88.3924 14.41643126  1338
2022-128A               
1 54026U 22128A   22289.10000000  .00000008  00000+0  00000+0 0  9992
2 54026  15.5780 191.8760 5932369 179.8140 332.6820  2.02332859   282
2022-128B               
1 54027U 22128B   22287.70000000 -.00000102  00000+0  00000+0 0  9993
2 54027  26.5810 191.7400 7060108 180.5950 346.6400  2.52590896   227
ASO-S                   
1 54029U 22129A   22290.17220384 -.00001333  00000+0 -32669-3 0  9998
2 54029  98.2677 295.5453 0013643 242.5948 117.3904 14.50848027  1189
COSMOS 2559 [GLONASS-K] 
1 54031U 22130A   22289.29494034 -.00000089  00000+0  00000+0 0  9995
2 54031  64.7804   1.4480 0001981 329.4345  30.3654  2.12837486   125
ANGOSAT 2               
1 54033U 22131A   22290.02965975  .00000068  00000+0  00000+0 0  9994
2 54033   0.0304   8.0843 0001646  80.1134  15.1768  0.98860561    57
HJ-2E                   
1 54035U 22132A   22290.08405824  .00012211  00000+0  51064-3 0  9998
2 54035  97.3949 295.5811 0011769 256.5951 188.8042 15.23675926   623
2022-133A               
1 54042U 22133A   22290.08515654  .00027259  00000+0  10777-2 0  9993
2 54042  34.9990 272.3471 0009223 290.1229 136.0920 15.24518778   355
2022-133B               
1 54043U 22133B   22290.14754523  .00013323  00000+0  52559-3 0  9993
2 54043  34.9980 271.9484 0009206 297.6372 113.3313 15.24700924   367
2022-133C               
1 54044U 22133C   22290.14731398  .00030768  00000+0  12039-2 0  9999
2 54044  34.9990 271.9492 0009785 298.6193 111.8864 15.24836893   361
2022-134A               
1 54048U 22134A   22289.72341804 -.00043278  00000+0 -19333+0 0  9998
2 54048  26.8132 300.6532 8048025 180.4401 358.8259  1.34950542    13
2022-135A               
1 54050U 22135A   22289.97584947  .00026959  00000+0  15940-3 0  9995
2 54050  96.3465  17.8881 0011949 242.5004 186.0883 15.77977855   176
OSCAR 7 (AO-7)          
1 07530U 74089B   22290.19665693 -.00000023  00000+0  14645-3 0  9991
2 07530 101.9206 270.5117 0012145 167.2421 260.6750 12.53657769192969
PHASE 3B (AO-10)        
1 14129U 83058B   22286.28111329 -.00000186  00000+0  00000+0 0  9992
2 14129  26.5843  76.8965 6026543 114.4095 318.2004  2.05870147267836
UOSAT 2 (UO-11)         
1 14781U 84021B   22289.83929724  .00001422  00000+0  17738-3 0  9990
2 14781  97.6307 271.8294 0006807 286.2916  73.7550 14.83888545 58041
LUSAT (LO-19)           
1 20442U 90005G   22289.86632094  .00000186  00000+0  84600-4 0  9993
2 20442  98.8104 256.6713 0011870 167.3465 192.8019 14.33099008710491
EYESAT A (AO-27)        
1 22825U 93061C   22289.68624005  .00000094  00000+0  54197-4 0  9994
2 22825  98.8767 323.2287 0009371  62.3273 297.8859 14.30200302515482
ITAMSAT (IO-26)         
1 22826U 93061D   22289.61008146  .00000108  00000+0  58963-4 0  9991
2 22826  98.8711 323.0231 0009759  49.9896 310.2141 14.30549729515732
RADIO ROSTO (RS-15)     
1 23439U 94085A   22289.99104653 -.00000039  00000+0  10000-3 0  9993
2 23439  64.8205 309.0429 0168074 251.7883 106.4683 11.27573010145190
JAS-2 (FO-29)           
1 24278U 96046B   22289.77282970 -.00000028  00000+0  97156-5 0  9996
2 24278  98.5152 296.7615 0349789 328.6478  29.4220 13.53122438292014
TECHSAT 1B (GO-32)      
1 25397U 98043D   22289.86539765  .00000120  00000+0  72084-4 0  9999
2 25397  98.8318 240.7245 0002272 103.5219 256.6213 14.23779267260701
ISS (ZARYA)             
1 25544U 98067A   22290.37442299  .00015341  00000+0  27499-3 0  9992
2 25544  51.6430  91.2326 0003474 312.5230 142.6117 15.50128069364134
PCSAT (NO-44)           
1 26931U 01043C   22289.94767555  .00000157  00000+0  91621-4 0  9995
2 26931  67.0494 104.7921 0005452 260.0795  99.9691 14.30747070 98948
SAUDISAT 1C (SO-50)     
1 27607U 02058C   22289.44888040  .00001394  00000+0  21012-3 0  9991
2 27607  64.5537 291.5900 0081650 271.4054  87.7697 14.76325780 66237
CUTE-1 (CO-55)          
1 27844U 03031E   22289.76208758  .00000349  00000+0  17569-3 0  9994
2 27844  98.6812 295.6326 0010926 108.8080 251.4284 14.22516314  1126
CUBESAT XI-IV (CO-57)   
1 27848U 03031J   22289.83350477  .00000282  00000+0  14711-3 0  9994
2 27848  98.6856 296.1959 0010689 121.7577 238.4644 14.22064488   918
